stk.v.11.0

# WrittenBy    STK_v11.4.1

BEGIN Ephemeris

    NumberOfEphemerisPoints		 17307

    ScenarioEpoch		 1 Jan 2018 00:00:00.000000

# Epoch in JDate format: 2458119.50000000000000
# Epoch in YYDDD format:   18001.00000000000000


    InterpolationMethod		 Lagrange

    InterpolationSamplesM1		 5

    CentralBody		 Earth

    CoordinateSystem		 Fixed

    BEGIN SegmentBoundaryTimes

        0.0000000000000000e+00
        9.5447315519999993e+03
        1.5477759071999999e+04
        1.0447345872000000e+05
        1.8753636499199999e+05
        2.7653215449599997e+05
        3.5959493548799999e+05
        4.4859058329600003e+05
        5.3165341612800001e+05
        6.2064913737600006e+05
        7.0371180604800000e+05
        7.9270749532800005e+05
        8.8170307660799997e+05
        9.6476575737600005e+05

    END SegmentBoundaryTimes

# Time of first point: 1 Jan 2018 00:00:00.000000000 UTCG = 2458119.50000000000000 JDate = 18001.00000000000000 YYDDD

    EphemerisTimePosVel		

2.2032000000000000e+05 5.2157761487073787e+06 -4.6539370073494660e+06 -1.1541490018770073e+06 -1.9589146593238938e+03 -3.9006416556309580e+02 -7.3245989596321970e+03
2.2038000000000000e+05 5.0877659640179649e+06 -4.6674291025747508e+06 -1.5909923988648334e+06 -2.3061509566948407e+03 -5.9033390853429410e+01 -7.2319293596510088e+03
2.2044000000000000e+05 4.9392835243287869e+06 -4.6609587590355230e+06 -2.0213963357628789e+06 -2.6410902365071515e+03 2.7510820533323601e+02 -7.1100264274945584e+03
2.2050000000000000e+05 4.7711080859528212e+06 -4.6343832048147889e+06 -2.4436217891320758e+06 -2.9623627126008987e+03 6.1089494507812424e+02 -6.9594088497771872e+03
2.2056000000000000e+05 4.5840989719654201e+06 -4.5876481043609744e+06 -2.8559644017506731e+06 -3.2686701338307166e+03 9.4684571319068118e+02 -6.7807129622122420e+03
2.2062000000000000e+05 4.3791911149049997e+06 -4.5207882757122405e+06 -3.2567614415956791e+06 -3.5587912144301895e+03 1.2814709207142926e+03 -6.5746893565468454e+03
2.2068000000000000e+05 4.1573902886261879e+06 -4.4339279902765788e+06 -3.6443985415901374e+06 -3.8315865667696994e+03 1.6132794535199218e+03 -6.3421989725943668e+03
2.2074000000000000e+05 3.9197680598005969e+06 -4.3272808574181674e+06 -4.0173161905961181e+06 -4.0860031159387040e+03 1.9407855615607477e+03 -6.0842087200062333e+03
2.2080000000000000e+05 3.6674564905731040e+06 -4.2011492986509679e+06 -4.3740159489104711e+06 -4.3210779825810760e+03 2.2625156479843708e+03 -5.8017866775276416e+03
2.2086000000000000e+05 3.4016426244816715e+06 -4.0559236185555821e+06 -4.7130663644382786e+06 -4.5359418273031406e+03 2.5770149215002343e+03 -5.4960969193501132e+03
2.2092000000000000e+05 3.1235627879401217e+06 -3.8920806815844229e+06 -5.0331085687154932e+06 -4.7298216565764160e+03 2.8828538800349002e+03 -5.1683940187855969e+03
2.2098000000000000e+05 2.8344967393994159e+06 -3.7101822056848248e+06 -5.3328615349389538e+06 -4.9020430961853917e+03 3.1786345985949179e+03 -4.8200172788783311e+03
2.2104000000000000e+05 2.5357616977679273e+06 -3.5108726851384919e+06 -5.6111269830800705e+06 -5.0520321437753655e+03 3.4629967992342063e+03 -4.4523847378025666e+03
2.2110000000000000e+05 2.2287062808343824e+06 -3.2948769561907304e+06 -5.8667939199343100e+06 -5.1793164168020030e+03 3.7346236859078786e+03 -4.0669869940780200e+03
2.2116000000000000e+05 1.9147043833391920e+06 -3.0629974199320879e+06 -6.0988428045405308e+06 -5.2835259160734722e+03 3.9922475316285168e+03 -3.6653808929037673e+03
2.2122000000000000e+05 1.5951490230448639e+06 -2.8161109375242996e+06 -6.3063493317348082e+06 -5.3643933280337906e+03 4.2346550095586663e+03 -3.2491831104441753e+03
2.2128000000000000e+05 1.2714461817079703e+06 -2.5551654132523793e+06 -6.4884878286558622e+06 -5.4217538909340519e+03 4.4606922633521799e+03 -2.8200636678731616e+03
2.2134000000000000e+05 9.4500866632341058e+05 -2.2811760810798523e+06 -6.6445342607559655e+06 -5.4555448510685710e+03 4.6692697150697413e+03 -2.3797394016169433e+03
2.2140000000000000e+05 6.1725001444245258e+05 -1.9952215104192358e+06 -6.7738688452876406e+06 -5.4658045353541120e+03 4.8593666112648170e+03 -1.9299674107313556e+03
2.2146000000000000e+05 2.8957846582305070e+05 -1.6984393467585989e+06 -6.8759782713245731e+06 -5.4526710657648782e+03 5.0300353092985051e+03 -1.4725384969368354e+03
2.2152000000000000e+05 -3.6608978811140129e+04 -1.3920218026452672e+06 -6.9504575261532795e+06 -5.4163807396003749e+03 5.1804053065806083e+03 -1.0092706077029259e+03
2.2158000000000000e+05 -3.5993239248815511e+05 -1.0772109143827462e+06 -6.9970113283559578e+06 -5.3572660973754428e+03 5.3096870152442707e+03 -5.4200228814261845e+02
2.2164000000000000e+05 -6.7903463198260195e+05 -7.5529357968799013e+05 -7.0154551681363545e+06 -5.2757536974268423e+03 5.4171752837920649e+03 -7.2586143509563186e+01
2.2170000000000000e+05 -9.9258690597067459e+05 -4.2759639148863859e+05 -7.0057159554609563e+06 -5.1723616132736888e+03 5.5022526655775582e+03 3.9711768911994142e+02
2.2176000000000000e+05 -1.2992941850232393e+06 -9.5480283190287999e+04 -6.9678322764393697e+06 -5.0476966665396958e+03 5.5643924316694756e+03 8.6524806353265944e+02
2.2182000000000000e+05 -1.5979004378611895e+06 2.3966499909778606e+05 -6.9019542581338594e+06 -4.9024514049767731e+03 5.6031613228826045e+03 1.3299493463188192e+03
2.2188000000000000e+05 -1.8871936787360399e+06 5.7642658144030557e+05 -6.8083430416927245e+06 -4.7374008320196654e+03 5.6182220326083670e+03 1.7893779430581512e+03
2.2194000000000000e+05 -2.1660108111000233e+06 9.1337428751125140e+05 -6.6873698634456014e+06 -4.5533988915014925e+03 5.6093354087595199e+03 2.2417088328361301e+03
2.2200000000000000e+05 -2.4332422529037385e+06 1.2490665872657651e+06 -6.5395147434158269e+06 -4.3513747087952088e+03 5.5763623598056547e+03 2.6851421132796986e+03
2.2206000000000000e+05 -2.6878363288740222e+06 1.5820566505193859e+06 -6.3653647806690577e+06 -4.1323285878672987e+03 5.5192654466871854e+03 3.1179095553920242e+03
2.2212000000000000e+05 -2.9288034150708574e+06 1.9108984859360603e+06 -6.1656120550775891e+06 -3.8973277626217809e+03 5.4381101395363521e+03 3.5382811637313303e+03
2.2218000000000000e+05 -3.1552198209223533e+06 2.2341531445990303e+06 -5.9410511354821278e+06 -3.6475019005531913e+03 5.3330657157598152e+03 3.9445717330298949e+03
2.2224000000000000e+05 -3.3662313938359837e+06 2.5503949658851880e+06 -5.6925761949171778e+06 -3.3840383571640878e+03 5.2044057743000685e+03 4.3351473873510995e+03
2.2230000000000000e+05 -3.5610568314366145e+06 2.8582178418331188e+06 -5.4211777345567923e+06 -3.1081771808432632e+03 5.0525083399169253e+03 4.7084320825360601e+03
2.2236000000000000e+05 -3.7389906865277267e+06 3.1562414746275446e+06 -5.1279389193522213e+06 -2.8212058699320869e+03 4.8778555312201734e+03 5.0629140471901092e+03
2.2242000000000000e+05 -3.8994060500630736e+06 3.4431176002792493e+06 -4.8140315299721370e+06 -2.5244538864736141e+03 4.6810327670119905e+03 5.3971521320279671e+03
2.2248000000000000e+05 -4.0417568977880906e+06 3.7175361501094773e+06 -4.4807115376142273e+06 -2.2192869345681634e+03 4.4627274873060442e+03 5.7097820322400676e+03
2.2254000000000000e+05 -4.1655800868063639e+06 3.9782313203193718e+06 -4.1293143105033985e+06 -1.9071010152358740e+03 4.2237273681812076e+03 5.9995223428833524e+03
2.2260000000000000e+05 -4.2704969891673317e+06 4.2239875187830040e+06 -3.7612494634049791e+06 -1.5893162740946677e+03 3.9649180133806658e+03 6.2651804033174585e+03
2.2266000000000000e+05 -4.3562147506879326e+06 4.4536451573182521e+06 -3.3779953641991923e+06 -1.2673706628380000e+03 3.6872801102077042e+03 6.5056578835962700e+03
2.2272000000000000e+05 -4.4225271646161173e+06 4.6661062570976987e+06 -2.9810933144481159e+06 -9.4271344029681927e+02 3.3918860427117093e+03 6.7199560636160568e+03
2.2278000000000000e+05 -4.4693151514278241e+06 4.8603398346206769e+06 -2.5721414238578724e+06 -6.1679854361043772e+02 3.0798959612634835e+03 6.9071807548475972e+03
2.2284000000000000e+05 -4.4965468380083293e+06 5.0353870358019676e+06 -2.1527882015405241e+06 -2.9107786455423377e+02 2.7525533142411628e+03 7.0665468147091178e+03
2.2290000000000000e+05 -4.5042772316885572e+06 5.1903659862757912e+06 -1.7247258899317968e+06 3.3005529794165909e+01 2.4111798545070315e+03 7.1973822051168827e+03
2.2296000000000000e+05 -4.4926474870593883e+06 5.3244763269768301e+06 -1.2896835700498102e+06 3.5402418927477055e+02 2.0571701404605592e+03 7.2991315494762157e+03
2.2302000000000000e+05 -4.4618837661356088e+06 5.4370034054497331e+06 -8.4942006941037509e+05 6.7057304006387653e+02 1.6919855585007781e+03 7.3713591463057901e+03
2.2308000000000000e+05 -4.4122956952422215e+06 5.5273220951414751e+06 -4.0571670628295711e+05 9.8127606348390884e+02 1.3171479005244855e+03 7.4137514027343477e+03
2.2314000000000000e+05 -4.3442744248997904e+06 5.5949002171324380e+06 3.9630093996297845e+04 1.2847928451682067e+03 9.3423253641880001e+02 7.4261186571517455e+03
2.2320000000000000e+05 -4.2582903019364877e+06 5.6393015413234644e+06 4.8481627328553295e+05 1.5798249452593407e+03 5.4486122720150752e+02 7.4083963671737647e+03
2.2326000000000000e+05 -4.1548901659957790e+06 5.6601883469797764e+06 9.2803766688794317e+05 1.8651220410171929e+03 1.5069462934381940e+02 7.3606456466075206e+03
2.2332000000000000e+05 -4.0346942854809957e+06 5.6573235256820302e+06 1.3674975424519943e+06 2.1394877948823014e+03 -2.4657545525398831e+02 7.2830531430691935e+03
2.2338000000000000e+05 -3.8983929507236509e+06 5.6305722130923336e+06 1.8014141119131250e+06 2.4017854036522922e+03 -6.4523402629119494e+02 7.1759302560833958e+03
2.2344000000000000e+05 -3.7467427447264669e+06 5.5799029394413820e+06 2.2280279770928156e+06 2.6509427879145223e+03 -1.0435509700202083e+03 7.0397117036491290e+03
2.2350000000000000e+05 -3.5805625141653921e+06 5.5053882922132257e+06 2.6456094702760619e+06 2.8859573851397663e+03 -1.4397892224804593e+03 6.8749534531582876e+03
END Ephemeris
